[{"OBJECT_NAME":"QB50P1","OBJECT_ID":"2014-033R","EPOCH":"2026-03-09T23:22:28.219872","MEAN_MOTION":15.16526525,"ECCENTRICITY":0.00083666,"INCLINATION":98.1009,"RA_OF_ASC_NODE":73.2758,"ARG_OF_PERICENTER":193.7221,"MEAN_ANOMALY":166.3784,"EPHEMERIS_TYPE":0,"CLASSIFICATION_TYPE":"U","NORAD_CAT_ID":40025,"ELEMENT_SET_NO":999,"REV_AT_EPOCH":63798,"BSTAR":0.00058166231,"MEAN_MOTION_DOT":0.00011283,"MEAN_MOTION_DDOT":0},{"OBJECT_NAME":"STARLINK-30171","OBJECT_ID":"2023-107N","EPOCH":"2026-03-09T22:00:01.999584","MEAN_MOTION":15.13070557,"ECCENTRICITY":0.0001116,"INCLINATION":43.0002,"RA_OF_ASC_NODE":336.977,"ARG_OF_PERICENTER":314.263,"MEAN_ANOMALY":147.3723,"EPHEMERIS_TYPE":0,"CLASSIFICATION_TYPE":"U","NORAD_CAT_ID":57469,"ELEMENT_SET_NO":999,"REV_AT_EPOCH":578,"BSTAR":0.0011019622,"MEAN_MOTION_DOT":0.00019669,"MEAN_MOTION_DDOT":0}]
